BEIDOU-2 IGSO-6 (C13)   
1 41434U 16021A   24225.96716174 -.00000121  00000+0  00000+0 0  9995
2 41434  59.2610  44.7742 0048970 220.9743 137.9886  1.00260946 30726
GSAT0211 (GALILEO 14)   
1 41549U 16030A   24221.29063258  .00000049  00000+0  00000+0 0  9990
2 41549  55.3440 240.3417 0003460 309.0809  50.9279  1.70473819 51119
IRNSS-1F                
1 41384U 16015A   24226.19026036  .00000167  00000+0  00000+0 0  9998
2 41384   3.6997 115.7379 0018515 177.9483 129.3676  1.00275913 30913
IRNSS-1G                
1 41469U 16027A   24225.92336653 -.00000326  00000+0  00000+0 0  9992
2 41469   3.5675 116.9204 0005173 348.9283 317.9923  1.00270230 30426
COSMOS 2514 (751)       
1 41330U 16008A   24225.89619342 -.00000071  00000+0  00000+0 0  9990
2 41330  65.3813 336.0195 0011777 205.2356 154.7325  2.13102627 66274
